{"type":"FeatureCollection","source":"Baltimore City GIS Community Statistical Areas and U.S. Census TIGERweb 2025 county boundaries","features":[{"type":"Feature","geometry":{"type":"Polygon","coordinates":[[[-76.65726,39.27599],[-76.66015,39.28066],[-76.65903,39.28138],[-76.65995,39.28254],[-76.65917,39.28551],[-76.65937,39.28612],[-76.66046,39.28695],[-76.6635,39.28751],[-76.66749,39.29221],[-76.66959,39.29351],[-76.66974,39.2942],[-76.69795,39.29293],[-76.69718,39.29098],[-76.69711,39.28914],[-76.69571,39.28842],[-76.6953,39.28728],[-76.69404,39.28605],[-76.69314,39.28316],[-76.69291,39.28146],[-76.69368,39.28143],[-76.69576,39.27763],[-76.69382,39.27483],[-76.69269,39.27182],[-76.68944,39.27217],[-76.68814,39.27458],[-76.68663,39.27542],[-76.68492,39.27536],[-76.68217,39.27725],[-76.68126,39.2768],[-76.68079,39.27716],[-76.67925,39.277],[-76.67706,39.27472],[-76.67576,39.2741],[-76.67499,39.27521],[-76.67149,39.27591],[-76.66589,39.27571],[-76.66519,39.27541],[-76.66459,39.27601],[-76.66187,39.27662],[-76.66204,39.27619],[-76.66151,39.27623],[-76.66022,39.27485],[-76.65912,39.2745],[-76.65726,39.27599],[-76.65726,39.27599]]]},"properties":{"areaId":"city-0","areaName":"Allendale/Irvington/S. Hilton","detailName":"Allendale","areaType":"neighborhood"}},{"type":"Feature","geometry":{"type":"Polygon","coordinates":[[[-76.69479,39.302],[-76.6965,39.30204],[-76.69765,39.30135],[-76.69849,39.30146],[-76.69933,39.30206],[-76.70063,39.30192],[-76.70124,39.3012],[-76.70287,39.3006],[-76.70309,39.29968],[-76.70485,39.29968],[-76.70565,39.29936],[-76.70648,39.29997],[-76.7067,39.30081],[-76.70549,39.30193],[-76.70571,39.30255],[-76.70794,39.3033],[-76.709,39.30328],[-76.70992,39.30261],[-76.7112,39.30288],[-76.71116,39.27784],[-76.69959,39.27279],[-76.69279,39.27181],[-76.69375,39.27469],[-76.69576,39.27763],[-76.69368,39.28143],[-76.69291,39.28146],[-76.69314,39.28316],[-76.69404,39.28605],[-76.6953,39.28728],[-76.69571,39.28842],[-76.69711,39.28914],[-76.69718,39.29098],[-76.69795,39.29293],[-76.6894,39.29358],[-76.68945,39.29418],[-76.69099,39.29469],[-76.69227,39.29607],[-76.69156,39.29671],[-76.69344,39.29795],[-76.69236,39.29908],[-76.69459,39.30081],[-76.69409,39.30151],[-76.69465,39.30193],[-76.69479,39.302]]]},"properties":{"areaId":"city-1","areaName":"Beechfield/Ten Hills/West Hills","detailName":"Beechfield","areaType":"neighborhood"}},{"type":"Feature","geometry":{"type":"Polygon","coordinates":[[[-76.56761,39.32635],[-76.56818,39.32735],[-76.56994,39.32656],[-76.57067,39.32684],[-76.57083,39.32741],[-76.5696,39.3286],[-76.57013,39.32968],[-76.57466,39.33156],[-76.57532,39.33217],[-76.57508,39.33341],[-76.57668,39.33372],[-76.58372,39.32802],[-76.58737,39.32367],[-76.59015,39.32179],[-76.59494,39.31712],[-76.58449,39.31491],[-76.58172,39.31461],[-76.58214,39.31424],[-76.57349,39.31429],[-76.57258,39.31457],[-76.56997,39.31338],[-76.56266,39.31386],[-76.5593,39.31527],[-76.5551,39.31788],[-76.55591,39.31889],[-76.55615,39.32012],[-76.55732,39.32128],[-76.5603,39.32093],[-76.56083,39.32169],[-76.56075,39.32247],[-76.56286,39.32475],[-76.56566,39.32517],[-76.56746,39.32626],[-76.56761,39.32635]]]},"properties":{"areaId":"city-2","areaName":"Belair-Edison","detailName":"Belair-Edison","areaType":"neighborhood"}},{"type":"Feature","geometry":{"type":"Polygon","coordinates":[[[-76.52985,39.21876],[-76.56689,39.25431],[-76.57189,39.25651],[-76.57729,39.25631],[-76.58949,39.25481],[-76.60829,39.25471],[-76.60909,39.24991],[-76.61249,39.24661],[-76.61469,39.24091],[-76.61821,39.23728],[-76.61161,39.23439],[-76.58367,39.20812],[-76.54973,39.19723],[-76.52986,39.20962],[-76.52985,39.21795],[-76.52985,39.21876]]]},"properties":{"areaId":"city-3","areaName":"Brooklyn/Curtis Bay/Hawkins Point","detailName":"Brooklyn","areaType":"neighborhood"}},{"type":"Feature","geometry":{"type":"Polygon","coordinates":[[[-76.5714,39.28441],[-76.57709,39.28419],[-76.57722,39.28623],[-76.57581,39.28631],[-76.57618,39.29222],[-76.58471,39.29189],[-76.58432,39.28596],[-76.58707,39.28585],[-76.58659,39.27731],[-76.57759,39.27161],[-76.57088,39.27642],[-76.57138,39.28411],[-76.5714,39.28441]]]},"properties":{"areaId":"city-4","areaName":"Canton","detailName":"Canton","areaType":"neighborhood"}},{"type":"Feature","geometry":{"type":"Polygon","coordinates":[[[-76.52972,39.33113],[-76.52969,39.35562],[-76.54124,39.3454],[-76.56079,39.33176],[-76.56761,39.32635],[-76.56566,39.32517],[-76.56286,39.32475],[-76.56075,39.32247],[-76.56083,39.32169],[-76.5603,39.32093],[-76.55732,39.32128],[-76.55615,39.32012],[-76.55591,39.31889],[-76.55503,39.31782],[-76.55232,39.31678],[-76.54941,39.31641],[-76.54916,39.31569],[-76.54007,39.3215],[-76.53321,39.33051],[-76.53005,39.33106],[-76.52972,39.33113]]]},"properties":{"areaId":"city-5","areaName":"Cedonia/Frankford","detailName":"Cedonia","areaType":"neighborhood"}},{"type":"Feature","geometry":{"type":"Polygon","coordinates":[[[-76.62329,39.26011],[-76.62469,39.26061],[-76.63221,39.25756],[-76.6336,39.25838],[-76.63469,39.25537],[-76.63399,39.25031],[-76.62989,39.24471],[-76.62809,39.24291],[-76.62709,39.24241],[-76.62189,39.24151],[-76.61469,39.24091],[-76.61249,39.24661],[-76.60909,39.24991],[-76.60829,39.25471],[-76.61049,39.25471],[-76.61652,39.25725],[-76.62329,39.26011]]]},"properties":{"areaId":"city-6","areaName":"Cherry Hill","detailName":"Cherry Hill","areaType":"neighborhood"}},{"type":"Feature","geometry":{"type":"Polygon","coordinates":[[[-76.59491,39.35405],[-76.59521,39.35536],[-76.59794,39.3589],[-76.59832,39.36105],[-76.59785,39.36297],[-76.59971,39.36655],[-76.59946,39.36708],[-76.60028,39.36808],[-76.60023,39.36897],[-76.60006,39.36873],[-76.59745,39.37086],[-76.59714,39.37189],[-76.60977,39.372],[-76.60989,39.35549],[-76.59711,39.354],[-76.59507,39.35404],[-76.59491,39.35405]]]},"properties":{"areaId":"city-7","areaName":"Chinquapin Park/Belvedere","detailName":"Cameron Village","areaType":"neighborhood"}},{"type":"Feature","geometry":{"type":"Polygon","coordinates":[[[-76.52974,39.31019],[-76.52972,39.33113],[-76.53321,39.33051],[-76.54007,39.3215],[-76.54916,39.31569],[-76.54936,39.31639],[-76.55245,39.31681],[-76.5551,39.31788],[-76.5593,39.31527],[-76.5632,39.31371],[-76.57015,39.31338],[-76.57223,39.31451],[-76.57313,39.31432],[-76.57305,39.30933],[-76.56863,39.30939],[-76.56596,39.30893],[-76.55382,39.29992],[-76.53919,39.30448],[-76.53596,39.306],[-76.52989,39.31009],[-76.52974,39.31019]]]},"properties":{"areaId":"city-8","areaName":"Claremont/Armistead","detailName":"Armistead Gardens","areaType":"neighborhood"}},{"type":"Feature","geometry":{"type":"Polygon","coordinates":[[[-76.58449,39.31491],[-76.59494,39.31712],[-76.59884,39.31332],[-76.59936,39.31193],[-76.58869,39.31242],[-76.58812,39.30317],[-76.58689,39.30251],[-76.57282,39.30251],[-76.57313,39.31432],[-76.58214,39.31424],[-76.58172,39.31461],[-76.58249,39.31461],[-76.58449,39.31491]]]},"properties":{"areaId":"city-9","areaName":"Clifton-Berea","detailName":"Berea","areaType":"neighborhood"}},{"type":"Feature","geometry":{"type":"Polygon","coordinates":[[[-76.6731,39.36423],[-76.67413,39.36633],[-76.67715,39.3689],[-76.67817,39.37198],[-76.71129,39.37196],[-76.69777,39.36071],[-76.68812,39.35575],[-76.67562,39.36239],[-76.67357,39.36397],[-76.6731,39.36423]]]},"properties":{"areaId":"city-10","areaName":"Cross-Country/Cheswolde","detailName":"Cheswolde","areaType":"neighborhood"}},{"type":"Feature","geometry":{"type":"Polygon","coordinates":[[[-76.70177,39.3196],[-76.70452,39.32202],[-76.70839,39.32181],[-76.71122,39.32089],[-76.7112,39.30288],[-76.70992,39.30261],[-76.709,39.30328],[-76.70794,39.3033],[-76.70571,39.30255],[-76.70549,39.30193],[-76.7067,39.30081],[-76.70648,39.29997],[-76.70565,39.29936],[-76.70485,39.29968],[-76.70309,39.29968],[-76.70287,39.3006],[-76.70124,39.3012],[-76.70063,39.30192],[-76.69933,39.30206],[-76.69849,39.30146],[-76.69765,39.30135],[-76.6965,39.30204],[-76.69488,39.30193],[-76.69426,39.30244],[-76.69491,39.30403],[-76.69424,39.30489],[-76.69139,39.30453],[-76.68973,39.30505],[-76.68903,39.30454],[-76.68785,39.30517],[-76.68676,39.30488],[-76.68616,39.30556],[-76.68705,39.30564],[-76.68744,39.30604],[-76.69011,39.30985],[-76.6901,39.31065],[-76.68906,39.31195],[-76.69001,39.31379],[-76.69286,39.3149],[-76.69589,39.31509],[-76.69618,39.31734],[-76.69838,39.31828],[-76.69996,39.31782],[-76.7006,39.31585],[-76.70224,39.31574],[-76.70289,39.31627],[-76.70319,39.31779],[-76.70393,39.31854],[-76.7024,39.31927],[-76.70177,39.3196]]]},"properties":{"areaId":"city-11","areaName":"Dickeyville/Franklintown","detailName":"Dickeyville","areaType":"neighborhood"}},{"type":"Feature","geometry":{"type":"Polygon","coordinates":[[[-76.67791,39.34001],[-76.68297,39.34133],[-76.68348,39.34076],[-76.68936,39.34075],[-76.68936,39.33397],[-76.69086,39.331],[-76.68864,39.33043],[-76.68859,39.32918],[-76.68742,39.32883],[-76.68992,39.32362],[-76.68256,39.32583],[-76.68196,39.32508],[-76.68105,39.32694],[-76.66468,39.32219],[-76.66419,39.32731],[-76.66569,39.33301],[-76.66891,39.33497],[-76.67088,39.33563],[-76.67789,39.34001],[-76.67791,39.34001]]]},"properties":{"areaId":"city-12","areaName":"Dorchester/Ashburton","detailName":"Ashburton","areaType":"neighborhood"}},{"type":"Feature","geometry":{"type":"Polygon","coordinates":[[[-76.62028,39.30144],[-76.62031,39.30175],[-76.62744,39.29537],[-76.62773,39.29373],[-76.62745,39.29037],[-76.62807,39.28765],[-76.62754,39.28604],[-76.60493,39.28687],[-76.60581,39.28995],[-76.60705,39.2914],[-76.61004,39.29339],[-76.61063,39.29459],[-76.61325,39.29453],[-76.61429,39.2951],[-76.61978,39.29495],[-76.61996,39.29731],[-76.62028,39.30144]]]},"properties":{"areaId":"city-13","areaName":"Downtown/Seton Hill","detailName":"Downtown","areaType":"neighborhood"}},{"type":"Feature","geometry":{"type":"Polygon","coordinates":[[[-76.67424,39.3022],[-76.67548,39.30356],[-76.6786,39.30471],[-76.67986,39.30591],[-76.68144,39.3066],[-76.68538,39.30591],[-76.68676,39.30488],[-76.68785,39.30517],[-76.68903,39.30454],[-76.68973,39.30505],[-76.69139,39.30453],[-76.69419,39.30491],[-76.69491,39.30403],[-76.69425,39.30276],[-76.69479,39.302],[-76.69409,39.30151],[-76.69459,39.30081],[-76.69236,39.29908],[-76.69344,39.29795],[-76.69156,39.29671],[-76.69227,39.29607],[-76.69099,39.29469],[-76.68945,39.29418],[-76.6894,39.29345],[-76.67031,39.29418],[-76.67058,39.29635],[-76.67124,39.29633],[-76.67299,39.29786],[-76.6737,39.30075],[-76.67347,39.30122],[-76.67424,39.3022],[-76.67424,39.3022]]]},"properties":{"areaId":"city-14","areaName":"Edmondson Village","detailName":"Edmondson Village","areaType":"neighborhood"}},{"type":"Feature","geometry":{"type":"Polygon","coordinates":[[[-76.58659,39.27731],[-76.58707,39.28585],[-76.58432,39.28596],[-76.58471,39.29189],[-76.59374,39.29153],[-76.59342,39.28558],[-76.59918,39.28531],[-76.59889,39.28231],[-76.60029,39.28161],[-76.60049,39.28088],[-76.60259,39.27951],[-76.59899,39.27691],[-76.58989,39.27801],[-76.58659,39.27731]]]},"properties":{"areaId":"city-15","areaName":"Fells Point","detailName":"Butcher's Hill","areaType":"neighborhood"}},{"type":"Feature","geometry":{"type":"Polygon","coordinates":[[[-76.67146,39.32418],[-76.68105,39.32694],[-76.68196,39.32508],[-76.68256,39.32583],[-76.69505,39.32204],[-76.70393,39.31854],[-76.70319,39.31779],[-76.70289,39.31627],[-76.70212,39.31569],[-76.7006,39.31585],[-76.69996,39.31782],[-76.69844,39.31829],[-76.69618,39.31734],[-76.69589,39.31509],[-76.69286,39.3149],[-76.69003,39.31381],[-76.68906,39.31195],[-76.6901,39.31065],[-76.69013,39.30988],[-76.68705,39.30564],[-76.68616,39.30556],[-76.68127,39.30657],[-76.67986,39.30591],[-76.6786,39.30471],[-76.67548,39.30356],[-76.67424,39.3022],[-76.6735,39.3035],[-76.67409,39.30628],[-76.6755,39.30588],[-76.6768,39.30677],[-76.67912,39.30682],[-76.67986,39.30738],[-76.67973,39.30912],[-76.68056,39.31076],[-76.67425,39.31103],[-76.67485,39.32115],[-76.67451,39.32181],[-76.67288,39.32133],[-76.6715,39.32408],[-76.67146,39.32418]]]},"properties":{"areaId":"city-16","areaName":"Forest Park/Walbrook","detailName":"Concerned Citizens Of Forest Park","areaType":"neighborhood"}},{"type":"Feature","geometry":{"type":"Polygon","coordinates":[[[-76.6731,39.36423],[-76.67562,39.36239],[-76.68812,39.35575],[-76.69777,39.36071],[-76.71129,39.37191],[-76.71126,39.34957],[-76.70671,39.35282],[-76.70559,39.35271],[-76.69979,39.34981],[-76.68889,39.34351],[-76.68509,39.34191],[-76.67791,39.34001],[-76.67671,39.34183],[-76.67834,39.34224],[-76.68081,39.34167],[-76.6823,39.34213],[-76.69011,39.34759],[-76.68781,39.34927],[-76.67934,39.35387],[-76.67227,39.35683],[-76.67078,39.35646],[-76.67174,39.36064],[-76.67134,39.36219],[-76.67297,39.36408],[-76.6731,39.36423]]]},"properties":{"areaId":"city-17","areaName":"Glen-Fallstaff","detailName":"Fallstaff","areaType":"neighborhood"}},{"type":"Feature","geometry":{"type":"Polygon","coordinates":[[[-76.60945,39.33093],[-76.612,39.33148],[-76.61397,39.33267],[-76.61507,39.33255],[-76.61629,39.33146],[-76.62383,39.33647],[-76.62397,39.33477],[-76.62318,39.3336],[-76.62452,39.33179],[-76.6257,39.33144],[-76.62597,39.33099],[-76.62496,39.32829],[-76.62539,39.32625],[-76.62501,39.32575],[-76.62306,39.32641],[-76.62198,39.32531],[-76.62052,39.32466],[-76.61998,39.32476],[-76.62029,39.32461],[-76.61931,39.31108],[-76.60946,39.31141],[-76.60945,39.33052],[-76.60945,39.33093]]]},"properties":{"areaId":"city-18","areaName":"Greater Charles Village/Barclay","detailName":"Abell","areaType":"neighborhood"}},{"type":"Feature","geometry":{"type":"Polygon","coordinates":[[[-76.59825,39.35415],[-76.60989,39.35549],[-76.60949,39.33444],[-76.60752,39.33446],[-76.60753,39.33405],[-76.60463,39.3343],[-76.60448,39.33399],[-76.5955,39.33415],[-76.59912,39.33755],[-76.60014,39.33935],[-76.59984,39.34423],[-76.59828,39.35405],[-76.59825,39.35415]]]},"properties":{"areaId":"city-19","areaName":"Greater Govans","detailName":"Kenilworth Park","areaType":"neighborhood"}},{"type":"Feature","geometry":{"type":"Polygon","coordinates":[[[-76.65758,39.32539],[-76.65785,39.32574],[-76.66419,39.32731],[-76.66468,39.32219],[-76.67146,39.32418],[-76.67288,39.32133],[-76.67451,39.32181],[-76.67485,39.32115],[-76.67425,39.31103],[-76.66132,39.31146],[-76.66175,39.31471],[-76.65988,39.31517],[-76.65998,39.30938],[-76.64251,39.31006],[-76.65207,39.31806],[-76.65743,39.3252],[-76.65758,39.32539]]]},"properties":{"areaId":"city-20","areaName":"Greater Mondawmin","detailName":"Burleith-Leighton","areaType":"neighborhood"}},{"type":"Feature","geometry":{"type":"Polygon","coordinates":[[[-76.62383,39.33647],[-76.62405,39.33743],[-76.62575,39.33925],[-76.6257,39.34403],[-76.6281,39.34872],[-76.63019,39.35639],[-76.62995,39.35747],[-76.63038,39.35871],[-76.62957,39.36029],[-76.63009,39.36111],[-76.6296,39.3627],[-76.62829,39.36409],[-76.62795,39.36585],[-76.62898,39.36522],[-76.63167,39.36549],[-76.63155,39.36871],[-76.63281,39.36878],[-76.63419,39.36934],[-76.63348,39.37089],[-76.63392,39.372],[-76.64977,39.37199],[-76.64623,39.36142],[-76.64859,39.36102],[-76.65026,39.36049],[-76.65028,39.36014],[-76.64968,39.35636],[-76.64793,39.3542],[-76.64624,39.35018],[-76.64702,39.34524],[-76.64327,39.34518],[-76.64022,39.34321],[-76.63902,39.34289],[-76.63542,39.3439],[-76.6347,39.34186],[-76.63192,39.33952],[-76.62801,39.33929],[-76.6259,39.33754],[-76.624,39.33657],[-76.62383,39.33647]]]},"properties":{"areaId":"city-21","areaName":"Greater Roland Park/Poplar Hill","detailName":"Cross Keys","areaType":"neighborhood"}},{"type":"Feature","geometry":{"type":"Polygon","coordinates":[[[-76.65131,39.3097],[-76.65998,39.30938],[-76.65988,39.31517],[-76.66175,39.31471],[-76.66132,39.31146],[-76.68056,39.31076],[-76.67973,39.30912],[-76.67986,39.30738],[-76.67912,39.30682],[-76.6768,39.30677],[-76.6755,39.30588],[-76.67409,39.30628],[-76.6735,39.3035],[-76.67424,39.3022],[-76.67347,39.30122],[-76.6737,39.30075],[-76.67301,39.2979],[-76.67124,39.29633],[-76.67058,39.29635],[-76.67031,39.29418],[-76.66537,39.29435],[-76.66319,39.29319],[-76.65038,39.2937],[-76.65065,39.29863],[-76.65149,39.29881],[-76.65079,39.30081],[-76.64891,39.30301],[-76.65099,39.30341],[-76.6513,39.30961],[-76.65131,39.3097]]]},"properties":{"areaId":"city-22","areaName":"Greater Rosemont","detailName":"Bridgeview/Greenlawn","areaType":"neighborhood"}},{"type":"Feature","geometry":{"type":"Polygon","coordinates":[[[-76.52969,39.35652],[-76.53576,39.35811],[-76.53787,39.35832],[-76.55187,39.3634],[-76.56332,39.35011],[-76.56004,39.34743],[-76.55362,39.33974],[-76.55245,39.33757],[-76.54124,39.3454],[-76.52969,39.35562],[-76.52969,39.35603],[-76.52969,39.35652]]]},"properties":{"areaId":"city-23","areaName":"Hamilton","detailName":"Rosemont East","areaType":"neighborhood"}},{"type":"Feature","geometry":{"type":"Polygon","coordinates":[[[-76.52969,39.35652],[-76.52967,39.37197],[-76.57011,39.37199],[-76.57392,39.36787],[-76.57308,39.36138],[-76.57344,39.35776],[-76.57287,39.35707],[-76.57305,39.3539],[-76.56633,39.35268],[-76.56332,39.35011],[-76.55187,39.3634],[-76.53787,39.35832],[-76.53576,39.35811],[-76.52974,39.35654],[-76.52969,39.35652]]]},"properties":{"areaId":"city-24","areaName":"Harford/Echodale","detailName":"Christopher (now Harford-Echodale/Perring Parkway)","areaType":"neighborhood"}},{"type":"Feature","geometry":{"type":"Polygon","coordinates":[[[-76.56209,39.28151],[-76.56279,39.29273],[-76.56941,39.29248],[-76.56908,39.28756],[-76.5716,39.28746],[-76.571,39.27832],[-76.56419,39.2786],[-76.56319,39.27951],[-76.56209,39.28151],[-76.56209,39.28151]]]},"properties":{"areaId":"city-25","areaName":"Highlandtown","detailName":"Brewers Hill","areaType":"neighborhood"}},{"type":"Feature","geometry":{"type":"Polygon","coordinates":[[[-76.68297,39.34133],[-76.68889,39.34351],[-76.69979,39.34981],[-76.70559,39.35271],[-76.70671,39.35282],[-76.71126,39.34957],[-76.71122,39.32089],[-76.70839,39.32181],[-76.70452,39.32202],[-76.70177,39.3196],[-76.68992,39.32362],[-76.68742,39.32883],[-76.68859,39.32918],[-76.68864,39.33043],[-76.69086,39.331],[-76.68936,39.33397],[-76.68936,39.34075],[-76.68348,39.34076],[-76.683,39.34129],[-76.68297,39.34133]]]},"properties":{"areaId":"city-26","areaName":"Howard Park/West Arlington","detailName":"Forest Park Golf Course","areaType":"neighborhood"}},{"type":"Feature","geometry":{"type":"Polygon","coordinates":[[[-76.60495,39.28547],[-76.60542,39.28684],[-76.62754,39.28604],[-76.625,39.28192],[-76.62083,39.28053],[-76.61943,39.27963],[-76.6192,39.2785],[-76.62096,39.27465],[-76.61872,39.27392],[-76.61861,39.27247],[-76.61611,39.27254],[-76.61598,39.27045],[-76.61156,39.27062],[-76.61175,39.27271],[-76.60527,39.27299],[-76.59886,39.27078],[-76.59509,39.27721],[-76.59899,39.27691],[-76.60259,39.27951],[-76.60369,39.28091],[-76.60401,39.28288],[-76.60445,39.283],[-76.60499,39.28436],[-76.60483,39.28508],[-76.60495,39.28547]]]},"properties":{"areaId":"city-27","areaName":"Inner Harbor/Federal Hill","detailName":"Federal Hill","areaType":"neighborhood"}},{"type":"Feature","geometry":{"type":"Polygon","coordinates":[[[-76.56332,39.35011],[-76.56633,39.35268],[-76.57305,39.3539],[-76.57451,39.3525],[-76.57773,39.3524],[-76.57719,39.35079],[-76.57744,39.34981],[-76.57945,39.35045],[-76.58193,39.34886],[-76.58105,39.34776],[-76.5813,39.3469],[-76.5807,39.34451],[-76.58143,39.34333],[-76.58172,39.34159],[-76.57928,39.34163],[-76.5782,39.34003],[-76.5764,39.33896],[-76.57796,39.3381],[-76.57867,39.33537],[-76.57891,39.33583],[-76.58018,39.33599],[-76.57889,39.33565],[-76.57835,39.33443],[-76.57728,39.33363],[-76.57767,39.33345],[-76.57838,39.33388],[-76.57802,39.33348],[-76.5753,39.3336],[-76.57497,39.33177],[-76.57018,39.32973],[-76.56964,39.32843],[-76.57085,39.32733],[-76.57022,39.32656],[-76.5682,39.32736],[-76.56761,39.32635],[-76.56079,39.33176],[-76.55245,39.33757],[-76.55362,39.33974],[-76.56004,39.34743],[-76.56316,39.34994],[-76.56332,39.35011]]]},"properties":{"areaId":"city-28","areaName":"Lauraville","detailName":"Arcadia","areaType":"neighborhood"}},{"type":"Feature","geometry":{"type":"Polygon","coordinates":[[[-76.57305,39.3539],[-76.57287,39.35707],[-76.57344,39.35776],[-76.57308,39.36138],[-76.57401,39.36748],[-76.5734,39.36871],[-76.57011,39.37199],[-76.59746,39.372],[-76.59714,39.37189],[-76.59743,39.37088],[-76.60006,39.36873],[-76.60023,39.36897],[-76.60028,39.36808],[-76.59946,39.36708],[-76.59971,39.36655],[-76.59785,39.36297],[-76.59832,39.36105],[-76.59794,39.3589],[-76.59521,39.35536],[-76.59491,39.35405],[-76.59249,39.35425],[-76.58955,39.35542],[-76.58243,39.3556],[-76.57829,39.35443],[-76.57572,39.35495],[-76.57326,39.35393],[-76.57305,39.3539]]]},"properties":{"areaId":"city-29","areaName":"Loch Raven","detailName":"Glen Oaks","areaType":"neighborhood"}},{"type":"Feature","geometry":{"type":"Polygon","coordinates":[[[-76.58544,39.30231],[-76.58689,39.30251],[-76.58812,39.30317],[-76.58771,39.29649],[-76.57258,39.2971],[-76.57282,39.30251],[-76.58539,39.30231],[-76.58544,39.30231]]]},"properties":{"areaId":"city-30","areaName":"Madison/East End","detailName":"Madison-Eastend","areaType":"neighborhood"}},{"type":"Feature","geometry":{"type":"Polygon","coordinates":[[[-76.62383,39.33647],[-76.6259,39.33754],[-76.62801,39.33929],[-76.63192,39.33952],[-76.6347,39.34186],[-76.63542,39.3439],[-76.63798,39.34296],[-76.63929,39.34292],[-76.64278,39.34498],[-76.64429,39.34537],[-76.65011,39.34491],[-76.65447,39.34208],[-76.65842,39.34077],[-76.65768,39.33896],[-76.65651,39.33766],[-76.6559,39.33334],[-76.654,39.33024],[-76.65204,39.33097],[-76.64789,39.32961],[-76.64619,39.32991],[-76.64489,39.33091],[-76.64459,39.32971],[-76.64339,39.32991],[-76.64289,39.32961],[-76.64123,39.32752],[-76.63924,39.3265],[-76.63574,39.32572],[-76.6328,39.32382],[-76.63029,39.31998],[-76.62863,39.31595],[-76.63039,39.31683],[-76.62645,39.3129],[-76.6259,39.31294],[-76.62311,39.31097],[-76.61931,39.31108],[-76.62029,39.32461],[-76.61998,39.32476],[-76.62052,39.32466],[-76.62198,39.32531],[-76.62306,39.32641],[-76.62501,39.32575],[-76.62539,39.32625],[-76.62496,39.32829],[-76.62597,39.33099],[-76.6257,39.33144],[-76.62452,39.33179],[-76.62318,39.3336],[-76.62397,39.33477],[-76.62383,39.33641],[-76.62383,39.33647]]]},"properties":{"areaId":"city-31","areaName":"Medfield/Hampden/Woodberry/Remington","detailName":"Hampden","areaType":"neighborhood"}},{"type":"Feature","geometry":{"type":"Polygon","coordinates":[[[-76.58457,39.32703],[-76.58535,39.32732],[-76.58931,39.32728],[-76.58922,39.3283],[-76.59512,39.32831],[-76.59402,39.32608],[-76.60152,39.31875],[-76.60599,39.31941],[-76.60946,39.31941],[-76.60946,39.31141],[-76.59936,39.31193],[-76.59871,39.31348],[-76.59015,39.32179],[-76.58737,39.32367],[-76.58475,39.32683],[-76.58457,39.32703]]]},"properties":{"areaId":"city-32","areaName":"Midway/Coldstream","detailName":"Coldstream Homestead Montebello","areaType":"neighborhood"}},{"type":"Feature","geometry":{"type":"Polygon","coordinates":[[[-76.65726,39.27599],[-76.65912,39.2745],[-76.66022,39.27485],[-76.66151,39.27623],[-76.66204,39.27619],[-76.66187,39.27662],[-76.66459,39.27601],[-76.66519,39.27541],[-76.66589,39.27571],[-76.67149,39.27591],[-76.67499,39.27521],[-76.67576,39.2741],[-76.67706,39.27472],[-76.67925,39.277],[-76.68079,39.27716],[-76.68126,39.2768],[-76.68217,39.27725],[-76.68492,39.27536],[-76.68663,39.27542],[-76.68814,39.27458],[-76.68944,39.27217],[-76.69279,39.27181],[-76.69959,39.27279],[-76.66012,39.25558],[-76.65199,39.25881],[-76.6367,39.27008],[-76.64837,39.27124],[-76.65,39.27191],[-76.65485,39.27125],[-76.6552,39.27558],[-76.65604,39.27614],[-76.65725,39.276],[-76.65726,39.27599]]]},"properties":{"areaId":"city-33","areaName":"Morrell Park/Violetville","detailName":"Morrell Park","areaType":"neighborhood"}},{"type":"Feature","geometry":{"type":"Polygon","coordinates":[[[-76.64702,39.34524],[-76.64624,39.35018],[-76.64793,39.3542],[-76.64968,39.35636],[-76.65028,39.36014],[-76.65026,39.36049],[-76.64859,39.36102],[-76.64623,39.36142],[-76.64977,39.37199],[-76.67817,39.37198],[-76.67715,39.3689],[-76.67413,39.36633],[-76.6734,39.36464],[-76.67134,39.36219],[-76.67174,39.36064],[-76.67081,39.35676],[-76.66591,39.35762],[-76.6633,39.3553],[-76.66155,39.35501],[-76.65913,39.35551],[-76.6602,39.35429],[-76.65912,39.34785],[-76.65957,39.34575],[-76.65904,39.34459],[-76.65715,39.34263],[-76.65823,39.34078],[-76.65447,39.34208],[-76.65023,39.34487],[-76.64721,39.34522],[-76.64702,39.34524]]]},"properties":{"areaId":"city-34","areaName":"Mount Washington/Coldspring","detailName":"Coldspring","areaType":"neighborhood"}},{"type":"Feature","geometry":{"type":"Polygon","coordinates":[[[-76.60989,39.35549],[-76.60977,39.372],[-76.63392,39.372],[-76.63348,39.37089],[-76.63419,39.36934],[-76.63281,39.36878],[-76.63155,39.36871],[-76.63167,39.36549],[-76.62898,39.36522],[-76.62795,39.36585],[-76.62829,39.36409],[-76.6296,39.3627],[-76.63009,39.36111],[-76.62957,39.36029],[-76.63038,39.35871],[-76.62995,39.35747],[-76.63019,39.3564],[-76.6281,39.34872],[-76.6257,39.34403],[-76.62574,39.33923],[-76.62405,39.33743],[-76.62383,39.33647],[-76.61629,39.33146],[-76.61507,39.33255],[-76.61397,39.33267],[-76.612,39.33148],[-76.60945,39.33093],[-76.60987,39.35467],[-76.60989,39.35549]]]},"properties":{"areaId":"city-35","areaName":"North Baltimore/Guilford/Homeland","detailName":"Bellona-Gittings","areaType":"neighborhood"}},{"type":"Feature","geometry":{"type":"Polygon","coordinates":[[[-76.57305,39.3539],[-76.57572,39.35495],[-76.57829,39.35443],[-76.58243,39.3556],[-76.58955,39.35542],[-76.59331,39.35412],[-76.59825,39.35415],[-76.59984,39.34423],[-76.60014,39.33935],[-76.5988,39.33721],[-76.59542,39.33399],[-76.59495,39.33433],[-76.59512,39.32831],[-76.58922,39.3283],[-76.58931,39.32728],[-76.58535,39.32732],[-76.58457,39.32703],[-76.57668,39.33372],[-76.57739,39.33336],[-76.57802,39.33348],[-76.57838,39.33388],[-76.57767,39.33345],[-76.57728,39.33363],[-76.57835,39.33443],[-76.57889,39.33565],[-76.58018,39.33599],[-76.57891,39.33583],[-76.57867,39.33537],[-76.57796,39.3381],[-76.5764,39.33896],[-76.5782,39.34003],[-76.57928,39.34163],[-76.58172,39.34159],[-76.58143,39.34333],[-76.5807,39.34451],[-76.5813,39.3469],[-76.58105,39.34776],[-76.58193,39.34886],[-76.57945,39.35045],[-76.57744,39.34981],[-76.57719,39.35079],[-76.57773,39.3524],[-76.57451,39.3525],[-76.57308,39.35387],[-76.57305,39.3539]]]},"properties":{"areaId":"city-36","areaName":"Northwood","detailName":"Hillen","areaType":"neighborhood"}},{"type":"Feature","geometry":{"type":"Polygon","coordinates":[[[-76.52977,39.28483],[-76.52974,39.31019],[-76.53596,39.306],[-76.53919,39.30448],[-76.55382,39.29992],[-76.56596,39.30893],[-76.56863,39.30939],[-76.57305,39.30933],[-76.57265,39.29922],[-76.56986,39.29932],[-76.56941,39.29248],[-76.56279,39.29273],[-76.56209,39.28151],[-76.56129,39.28171],[-76.561,39.28077],[-76.55818,39.28086],[-76.55819,39.28161],[-76.55749,39.28161],[-76.55738,39.28089],[-76.55527,39.28094],[-76.55464,39.28213],[-76.55455,39.28129],[-76.55404,39.28103],[-76.53585,39.28175],[-76.52997,39.28482],[-76.52977,39.28483]]]},"properties":{"areaId":"city-37","areaName":"Orangeville/East Highlandtown","detailName":"Greektown","areaType":"neighborhood"}},{"type":"Feature","geometry":{"type":"Polygon","coordinates":[[[-76.56941,39.29248],[-76.56986,39.29932],[-76.57265,39.29922],[-76.57258,39.2971],[-76.58771,39.29649],[-76.58742,39.29178],[-76.57618,39.29222],[-76.57581,39.28631],[-76.57722,39.28623],[-76.57709,39.28419],[-76.5714,39.28441],[-76.5716,39.28746],[-76.56908,39.28756],[-76.5694,39.29241],[-76.56941,39.29248]]]},"properties":{"areaId":"city-38","areaName":"Patterson Park North & East","detailName":"Baltimore-Linwood (now Patterson Park Neighborhood)","areaType":"neighborhood"}},{"type":"Feature","geometry":{"type":"Polygon","coordinates":[[[-76.62311,39.31097],[-76.6259,39.31294],[-76.62645,39.3129],[-76.63039,39.31683],[-76.62863,39.31595],[-76.63029,39.31998],[-76.6323,39.32317],[-76.63517,39.32544],[-76.63924,39.3265],[-76.64123,39.32752],[-76.64289,39.32961],[-76.64339,39.32991],[-76.64459,39.32971],[-76.64489,39.33091],[-76.64619,39.32991],[-76.64789,39.32961],[-76.65204,39.33097],[-76.65382,39.33033],[-76.6552,39.32934],[-76.65655,39.32644],[-76.65758,39.32539],[-76.65207,39.31806],[-76.64251,39.31006],[-76.6234,39.31097],[-76.62311,39.31097]]]},"properties":{"areaId":"city-39","areaName":"Penn North/Reservoir Hill","detailName":"Druid Hill Park","areaType":"neighborhood"}},{"type":"Feature","geometry":{"type":"Polygon","coordinates":[[[-76.65944,39.3465],[-76.65912,39.34785],[-76.6602,39.35429],[-76.65913,39.35551],[-76.66155,39.35501],[-76.6633,39.3553],[-76.66591,39.35762],[-76.67081,39.35676],[-76.67078,39.35646],[-76.67227,39.35683],[-76.67347,39.35636],[-76.67974,39.35368],[-76.68781,39.34927],[-76.69011,39.34759],[-76.6823,39.34213],[-76.68081,39.34167],[-76.6782,39.34224],[-76.67386,39.34102],[-76.67232,39.34465],[-76.66882,39.3466],[-76.65962,39.34652],[-76.65944,39.3465]]]},"properties":{"areaId":"city-40","areaName":"Pimlico/Arlington/Hilltop","detailName":"Arlington","areaType":"neighborhood"}},{"type":"Feature","geometry":{"type":"Polygon","coordinates":[[[-76.62754,39.28604],[-76.62807,39.28765],[-76.62744,39.29051],[-76.62766,39.29464],[-76.63844,39.29417],[-76.63797,39.28558],[-76.62784,39.28602],[-76.62754,39.28604]]]},"properties":{"areaId":"city-41","areaName":"Poppleton/The Terraces/Hollins Market","detailName":"Hollins Market","areaType":"neighborhood"}},{"type":"Feature","geometry":{"type":"Polygon","coordinates":[[[-76.6388,39.30695],[-76.64251,39.31006],[-76.65131,39.3097],[-76.65099,39.30341],[-76.64891,39.30301],[-76.65079,39.30081],[-76.65149,39.29881],[-76.65065,39.29863],[-76.65038,39.29374],[-76.63191,39.29445],[-76.63879,39.30693],[-76.6388,39.30695]]]},"properties":{"areaId":"city-42","areaName":"Sandtown-Winchester/Harlem Park","detailName":"Easterwood","areaType":"neighborhood"}},{"type":"Feature","geometry":{"type":"Polygon","coordinates":[[[-76.58659,39.27731],[-76.58989,39.27801],[-76.59509,39.27721],[-76.59886,39.27078],[-76.60527,39.27299],[-76.61175,39.27271],[-76.61156,39.27062],[-76.61598,39.27045],[-76.61611,39.27254],[-76.61861,39.27247],[-76.61872,39.27392],[-76.62096,39.27465],[-76.62319,39.26984],[-76.6244,39.26864],[-76.62398,39.2675],[-76.62576,39.26778],[-76.62531,39.26741],[-76.62626,39.26699],[-76.62717,39.26521],[-76.62349,39.26521],[-76.62329,39.26011],[-76.61049,39.25471],[-76.58949,39.25481],[-76.57729,39.25631],[-76.57189,39.25651],[-76.57399,39.25941],[-76.57549,39.26711],[-76.57759,39.27161],[-76.58659,39.27731]]]},"properties":{"areaId":"city-43","areaName":"South Baltimore","detailName":"Locust Point","areaType":"neighborhood"}},{"type":"Feature","geometry":{"type":"Polygon","coordinates":[[[-76.52985,39.21876],[-76.52977,39.28483],[-76.53044,39.2848],[-76.53568,39.28177],[-76.55404,39.28103],[-76.55455,39.28129],[-76.55464,39.28213],[-76.55527,39.28094],[-76.55738,39.28089],[-76.55749,39.28161],[-76.55819,39.28161],[-76.55818,39.28086],[-76.561,39.28077],[-76.56129,39.28171],[-76.56199,39.28171],[-76.56319,39.27951],[-76.56419,39.2786],[-76.571,39.27832],[-76.57114,39.27613],[-76.57759,39.27161],[-76.57549,39.26711],[-76.57399,39.25941],[-76.57189,39.25651],[-76.56689,39.25431],[-76.52985,39.21876]]]},"properties":{"areaId":"city-44","areaName":"Southeastern","detailName":"Spring Garden Industrial Area","areaType":"neighborhood"}},{"type":"Feature","geometry":{"type":"Polygon","coordinates":[[[-76.65944,39.3465],[-76.66882,39.3466],[-76.67232,39.34465],[-76.67386,39.34102],[-76.67671,39.34183],[-76.67791,39.34001],[-76.67088,39.33563],[-76.66891,39.33497],[-76.66569,39.33301],[-76.66419,39.32731],[-76.65785,39.32574],[-76.65758,39.32539],[-76.65655,39.32644],[-76.6553,39.32921],[-76.654,39.33024],[-76.6559,39.33334],[-76.65651,39.33766],[-76.65768,39.33896],[-76.65842,39.34077],[-76.65719,39.34281],[-76.65921,39.34484],[-76.65952,39.34617],[-76.65944,39.3465]]]},"properties":{"areaId":"city-45","areaName":"Southern Park Heights","detailName":"Greenspring","areaType":"neighborhood"}},{"type":"Feature","geometry":{"type":"Polygon","coordinates":[[[-76.65038,39.29374],[-76.66319,39.29319],[-76.66537,39.29435],[-76.66974,39.2942],[-76.66959,39.29351],[-76.66749,39.29221],[-76.6635,39.28751],[-76.66046,39.28695],[-76.65945,39.28622],[-76.65916,39.28562],[-76.65995,39.28254],[-76.65903,39.28138],[-76.66015,39.28066],[-76.65769,39.27621],[-76.65581,39.27608],[-76.65519,39.27546],[-76.65449,39.27651],[-76.65189,39.27801],[-76.64139,39.28051],[-76.63779,39.28258],[-76.63844,39.29417],[-76.65,39.29375],[-76.65038,39.29374]]]},"properties":{"areaId":"city-46","areaName":"Southwest Baltimore","detailName":"Booth-Boyd","areaType":"neighborhood"}},{"type":"Feature","geometry":{"type":"Polygon","coordinates":[[[-76.5955,39.33415],[-76.60448,39.33399],[-76.60463,39.3343],[-76.60753,39.33405],[-76.60752,39.33446],[-76.60949,39.33444],[-76.60946,39.31941],[-76.60599,39.31941],[-76.60152,39.31875],[-76.59408,39.326],[-76.59513,39.32796],[-76.59495,39.33433],[-76.59548,39.33411],[-76.5955,39.33415]]]},"properties":{"areaId":"city-47","areaName":"The Waverlies","detailName":"Better Waverly","areaType":"neighborhood"}},{"type":"Feature","geometry":{"type":"Polygon","coordinates":[[[-76.62096,39.27465],[-76.6192,39.2785],[-76.6193,39.27944],[-76.62083,39.28053],[-76.625,39.28192],[-76.62754,39.28604],[-76.63797,39.28558],[-76.63779,39.28258],[-76.64139,39.28051],[-76.65189,39.27801],[-76.65449,39.27651],[-76.65539,39.27511],[-76.65485,39.27125],[-76.64999,39.27191],[-76.64837,39.27124],[-76.63571,39.26994],[-76.62398,39.2675],[-76.6244,39.26864],[-76.62319,39.26984],[-76.6211,39.27437],[-76.62096,39.27465]]]},"properties":{"areaId":"city-48","areaName":"Washington Village/Pigtown","detailName":"Barre Circle","areaType":"neighborhood"}},{"type":"Feature","geometry":{"type":"Polygon","coordinates":[[[-76.62576,39.26778],[-76.6367,39.27008],[-76.65199,39.25881],[-76.66012,39.25558],[-76.61821,39.23728],[-76.61469,39.24091],[-76.62189,39.24151],[-76.62709,39.24241],[-76.62809,39.24291],[-76.62989,39.24471],[-76.63399,39.25031],[-76.63469,39.25537],[-76.6336,39.25838],[-76.63221,39.25756],[-76.62469,39.26061],[-76.62329,39.26011],[-76.62349,39.26521],[-76.62717,39.26521],[-76.62626,39.26699],[-76.62531,39.26741],[-76.62577,39.26776],[-76.62576,39.26778]]]},"properties":{"areaId":"city-49","areaName":"Westport/Mount Winans/Lakeland","detailName":"Lakeland","areaType":"neighborhood"}},{"type":"Feature","geometry":{"type":"Polygon","coordinates":[[[-76.60837,39.29781],[-76.60631,39.29789],[-76.60727,39.30135],[-76.61129,39.3012],[-76.61104,39.29772],[-76.60916,39.29778],[-76.60837,39.29781]]]},"properties":{"areaId":"city-50","areaName":"Unassigned -- Jail","detailName":"","areaType":"neighborhood"}},{"type":"Feature","geometry":{"type":"Polygon","coordinates":[[[-76.58755,39.29394],[-76.58827,39.30561],[-76.59804,39.30521],[-76.59782,39.30173],[-76.60727,39.30135],[-76.60631,39.29789],[-76.61104,39.29772],[-76.61032,39.29379],[-76.60637,39.2907],[-76.59441,39.29396],[-76.59387,39.29395],[-76.59375,39.29153],[-76.58742,39.29178],[-76.58755,39.29394]]]},"properties":{"areaId":"city-51","areaName":"Oldtown/Middle East","detailName":"Dunbar-Broadway","areaType":"neighborhood"}},{"type":"Feature","geometry":{"type":"Polygon","coordinates":[[[-76.59918,39.28531],[-76.59342,39.28558],[-76.59387,39.29395],[-76.60637,39.2907],[-76.60493,39.28687],[-76.60542,39.28684],[-76.60499,39.28436],[-76.60466,39.28439],[-76.60437,39.28297],[-76.60401,39.28288],[-76.60369,39.28091],[-76.60259,39.27951],[-76.60049,39.28088],[-76.60029,39.28161],[-76.59898,39.28244],[-76.59918,39.28531]]]},"properties":{"areaId":"city-52","areaName":"Harbor East/Little Italy","detailName":"Washington Hill","areaType":"neighborhood"}},{"type":"Feature","geometry":{"type":"Polygon","coordinates":[[[-76.63404,39.31047],[-76.64251,39.31006],[-76.6388,39.30695],[-76.63191,39.29445],[-76.62766,39.29464],[-76.62711,39.29582],[-76.62034,39.30163],[-76.62075,39.30421],[-76.62401,39.30387],[-76.62509,39.30317],[-76.63404,39.31047]]]},"properties":{"areaId":"city-53","areaName":"Upton/Druid Heights","detailName":"Druid Heights","areaType":"neighborhood"}},{"type":"Feature","geometry":{"type":"Polygon","coordinates":[[[-76.61126,39.3047],[-76.60819,39.30482],[-76.60946,39.31141],[-76.63404,39.31047],[-76.62509,39.30317],[-76.62401,39.30387],[-76.62075,39.30421],[-76.61978,39.29495],[-76.61429,39.2951],[-76.61325,39.29453],[-76.61063,39.29459],[-76.61129,39.3012],[-76.61126,39.3047]]]},"properties":{"areaId":"city-54","areaName":"Midtown","detailName":"Bolton Hill","areaType":"neighborhood"}},{"type":"Feature","geometry":{"type":"Polygon","coordinates":[[[-76.58865,39.3118],[-76.58869,39.31242],[-76.60946,39.31141],[-76.60819,39.30482],[-76.61126,39.3047],[-76.61129,39.3012],[-76.59782,39.30173],[-76.59804,39.30521],[-76.58827,39.30561],[-76.5886,39.31095],[-76.58865,39.3118]]]},"properties":{"areaId":"city-55","areaName":"Greenmount East","detailName":"Greenmount Cemetery","areaType":"neighborhood"}},{"type":"Feature","geometry":{"type":"Polygon","coordinates":[[[-76.03863,39.48386],[-76.04413,39.49945],[-76.05047,39.50981],[-76.05887,39.51961],[-76.06987,39.53451],[-76.08597,39.55901],[-76.08801,39.56044],[-76.13597,39.61411],[-76.14747,39.61941],[-76.16176,39.64962],[-76.16841,39.65613],[-76.18397,39.66661],[-76.18658,39.66951],[-76.19308,39.6727],[-76.19548,39.6751],[-76.21268,39.6864],[-76.22928,39.70913],[-76.23328,39.72137],[-76.56945,39.72118],[-76.56739,39.6843],[-76.56519,39.6145],[-76.56414,39.61041],[-76.56199,39.60796],[-76.5629,39.60624],[-76.56086,39.59964],[-76.55946,39.59766],[-76.56007,39.59606],[-76.55662,39.59454],[-76.55325,39.58943],[-76.54985,39.58901],[-76.54705,39.58768],[-76.54592,39.58318],[-76.54473,39.58164],[-76.54496,39.58031],[-76.54351,39.57863],[-76.54403,39.57526],[-76.5413,39.57504],[-76.54012,39.57375],[-76.54071,39.5723],[-76.53983,39.56775],[-76.53688,39.56558],[-76.53596,39.56165],[-76.53449,39.56086],[-76.53201,39.56147],[-76.53207,39.55685],[-76.53106,39.5554],[-76.53401,39.55471],[-76.53483,39.55325],[-76.53424,39.55142],[-76.53183,39.5511],[-76.53217,39.54398],[-76.5278,39.54352],[-76.52582,39.53987],[-76.52205,39.53888],[-76.52253,39.53672],[-76.51848,39.53637],[-76.51817,39.53289],[-76.51593,39.53187],[-76.51649,39.52908],[-76.51256,39.52905],[-76.51039,39.52439],[-76.50786,39.52358],[-76.50498,39.52506],[-76.50087,39.52445],[-76.49889,39.52351],[-76.49667,39.52595],[-76.49463,39.52658],[-76.493,39.52463],[-76.48919,39.52401],[-76.48562,39.52197],[-76.48373,39.51954],[-76.48158,39.5196],[-76.47873,39.51861],[-76.47741,39.51712],[-76.47822,39.51533],[-76.47742,39.51447],[-76.47588,39.51525],[-76.47411,39.51756],[-76.47041,39.51568],[-76.46906,39.51369],[-76.46449,39.51236],[-76.46274,39.51249],[-76.46009,39.5105],[-76.46024,39.50778],[-76.4596,39.5072],[-76.45643,39.50816],[-76.45241,39.50669],[-76.4508,39.50782],[-76.44797,39.50846],[-76.44062,39.50319],[-76.43698,39.50196],[-76.43595,39.50254],[-76.4355,39.5044],[-76.43221,39.50662],[-76.42934,39.5043],[-76.42941,39.5028],[-76.42788,39.50189],[-76.42996,39.49918],[-76.42864,39.49764],[-76.43008,39.49698],[-76.43075,39.49521],[-76.43214,39.49413],[-76.432,39.49224],[-76.4337,39.4922],[-76.43307,39.48805],[-76.42891,39.48821],[-76.42561,39.48317],[-76.42557,39.48164],[-76.42288,39.48089],[-76.42064,39.47813],[-76.41885,39.47795],[-76.41766,39.47893],[-76.41628,39.47818],[-76.4106,39.47835],[-76.40986,39.4768],[-76.40806,39.47606],[-76.40791,39.47213],[-76.40641,39.472],[-76.40501,39.47403],[-76.40269,39.47328],[-76.40164,39.47258],[-76.39996,39.46879],[-76.39554,39.4683],[-76.39275,39.46598],[-76.39043,39.45982],[-76.38661,39.45967],[-76.38629,39.45599],[-76.3883,39.45444],[-76.38858,39.45321],[-76.38688,39.45178],[-76.38307,39.45038],[-76.38048,39.44652],[-76.37891,39.44537],[-76.37995,39.44327],[-76.37958,39.43823],[-76.37715,39.43522],[-76.37841,39.43243],[-76.38098,39.4295],[-76.38002,39.42735],[-76.38038,39.42494],[-76.37593,39.42377],[-76.37401,39.42231],[-76.37021,39.41523],[-76.37024,39.41327],[-76.37165,39.41173],[-76.37107,39.41046],[-76.37194,39.4051],[-76.36633,39.40421],[-76.36522,39.40181],[-76.36105,39.40025],[-76.35878,39.3903],[-76.32368,39.37441],[-76.32058,39.36881],[-76.32118,39.36631],[-76.32858,39.36011],[-76.33008,39.35621],[-76.31558,39.33761],[-76.31628,39.32991],[-76.30658,39.31011],[-76.30818,39.30741],[-76.31428,39.30401],[-76.32338,39.30281],[-76.33188,39.29861],[-76.33808,39.29281],[-76.34378,39.28451],[-76.34428,39.28251],[-76.28769,39.2541],[-76.2507,39.2869],[-76.14121,39.38041],[-76.12469,39.38997],[-76.09639,39.39878],[-76.07993,39.40551],[-76.06257,39.41594],[-76.05343,39.42346],[-76.04425,39.43561],[-76.03782,39.45191],[-76.03577,39.46569],[-76.03824,39.48246],[-76.03863,39.48386]]]},"properties":{"areaId":"county-24025","areaName":"Harford County","detailName":"Harford County","areaType":"county","countyFips":"24025"}},{"type":"Feature","geometry":{"type":"Polygon","coordinates":[[[-77.31156,39.63875],[-77.3099,39.63663],[-77.30967,39.63111],[-77.30791,39.62833],[-77.30535,39.62642],[-77.30067,39.62522],[-77.29952,39.62386],[-77.30168,39.62126],[-77.30667,39.62017],[-77.30738,39.61896],[-77.30026,39.61256],[-77.29573,39.6114],[-77.29401,39.61033],[-77.2903,39.60664],[-77.29042,39.60444],[-77.28775,39.60452],[-77.2872,39.60694],[-77.28568,39.60776],[-77.27605,39.60623],[-77.2713,39.60616],[-77.26979,39.60387],[-77.27093,39.60138],[-77.27036,39.60032],[-77.26598,39.5984],[-77.26315,39.59424],[-77.26059,39.59396],[-77.25955,39.59481],[-77.26128,39.59694],[-77.26166,39.60048],[-77.25846,39.60364],[-77.25468,39.60328],[-77.25085,39.60159],[-77.25,39.60027],[-77.25003,39.59809],[-77.24716,39.59371],[-77.23878,39.58897],[-77.23871,39.58441],[-77.23762,39.58465],[-77.23507,39.58769],[-77.23331,39.58845],[-77.23073,39.58902],[-77.22744,39.58807],[-77.22776,39.58697],[-77.23212,39.58615],[-77.23252,39.58463],[-77.22999,39.58343],[-77.22251,39.5831],[-77.22026,39.58211],[-77.21918,39.57969],[-77.22078,39.57813],[-77.22292,39.57746],[-77.22071,39.57562],[-77.21587,39.57443],[-77.21235,39.5781],[-77.21004,39.5791],[-77.20699,39.57946],[-77.19993,39.57847],[-77.19937,39.5764],[-77.19447,39.57224],[-77.19252,39.57197],[-77.19113,39.57099],[-77.18697,39.56667],[-77.18715,39.56449],[-77.18649,39.56447],[-77.18687,39.56372],[-77.1877,39.56375],[-77.18701,39.56248],[-77.18347,39.5607],[-77.18273,39.55934],[-77.17801,39.56089],[-77.17524,39.55998],[-77.17149,39.55464],[-77.17024,39.5548],[-77.16945,39.55412],[-77.16962,39.54985],[-77.17175,39.54665],[-77.1716,39.54382],[-77.16962,39.54353],[-77.169,39.54229],[-77.17146,39.53923],[-77.17065,39.53832],[-77.17041,39.53659],[-77.17133,39.53584],[-77.17058,39.5344],[-77.1688,39.53371],[-77.16546,39.53417],[-77.16586,39.53329],[-77.1651,39.53352],[-77.16518,39.53288],[-77.16321,39.53254],[-77.1571,39.53306],[-77.15596,39.53369],[-77.15234,39.5325],[-77.15114,39.53077],[-77.15167,39.52942],[-77.1502,39.52575],[-77.15093,39.52328],[-77.15003,39.52199],[-77.14382,39.52179],[-77.1384,39.52049],[-77.13695,39.5174],[-77.13769,39.51737],[-77.13782,39.51516],[-77.13623,39.51274],[-77.13468,39.5119],[-77.13467,39.51018],[-77.13354,39.50854],[-77.13215,39.50834],[-77.12975,39.50956],[-77.12773,39.50855],[-77.12543,39.50562],[-77.12042,39.50402],[-77.11816,39.50128],[-77.11327,39.49776],[-77.11,39.49748],[-77.10893,39.49535],[-77.10739,39.4942],[-77.10675,39.49186],[-77.1102,39.486],[-77.11769,39.47862],[-77.11707,39.47547],[-77.11891,39.47304],[-77.11997,39.46526],[-77.11602,39.45984],[-77.12396,39.4513],[-77.12674,39.44375],[-77.13021,39.43918],[-77.13345,39.4324],[-77.13594,39.43022],[-77.14045,39.42414],[-77.14804,39.41776],[-77.14698,39.41237],[-77.1474,39.40914],[-77.14854,39.40478],[-77.15438,39.3913],[-77.15383,39.38849],[-77.1562,39.3829],[-77.1564,39.37797],[-77.15919,39.37409],[-77.15818,39.37345],[-77.16472,39.36767],[-77.16746,39.35976],[-77.1671,39.3586],[-77.16973,39.3551],[-77.16926,39.35462],[-77.16808,39.35396],[-77.16755,39.35439],[-77.16617,39.35295],[-77.16247,39.35242],[-77.15604,39.34958],[-77.15177,39.34863],[-77.14511,39.3512],[-77.13829,39.35794],[-77.13592,39.35935],[-77.13591,39.36011],[-77.12642,39.36426],[-77.11968,39.36576],[-77.11791,39.36561],[-77.11632,39.3665],[-77.1133,39.36584],[-77.11171,39.36664],[-77.1076,39.36658],[-77.10101,39.36933],[-77.09339,39.36815],[-77.09228,39.36715],[-77.08601,39.36794],[-77.08045,39.36568],[-77.07767,39.36615],[-77.07441,39.36268],[-77.07064,39.36297],[-77.06577,39.36219],[-77.06128,39.35918],[-77.0599,39.3598],[-77.05118,39.35911],[-77.05054,39.36],[-77.05104,39.36117],[-77.04989,39.36216],[-77.04857,39.36215],[-77.0457,39.36003],[-77.03361,39.35534],[-77.03363,39.35361],[-77.03096,39.35133],[-77.02834,39.35244],[-77.02541,39.35059],[-77.02253,39.35079],[-77.0209,39.35353],[-77.01874,39.35252],[-77.01598,39.35254],[-77.00914,39.35483],[-77.00159,39.35434],[-76.99775,39.35486],[-76.99783,39.35568],[-76.99476,39.35828],[-76.9894,39.36134],[-76.98576,39.36132],[-76.983,39.36286],[-76.98161,39.36167],[-76.97667,39.3619],[-76.97489,39.36115],[-76.97325,39.36291],[-76.96978,39.36403],[-76.9645,39.36143],[-76.96283,39.35854],[-76.95996,39.35664],[-76.95714,39.35773],[-76.95048,39.35779],[-76.95118,39.35889],[-76.95073,39.35962],[-76.94643,39.36104],[-76.94444,39.35861],[-76.94137,39.35747],[-76.93741,39.35885],[-76.93312,39.3574],[-76.92925,39.35392],[-76.92772,39.35342],[-76.92572,39.35376],[-76.92328,39.35207],[-76.91829,39.35086],[-76.91291,39.35097],[-76.90958,39.34846],[-76.908,39.34938],[-76.90891,39.35062],[-76.90888,39.35265],[-76.90511,39.35432],[-76.90132,39.35418],[-76.89959,39.35233],[-76.8979,39.35163],[-76.88903,39.3538],[-76.88811,39.35315],[-76.88841,39.35174],[-76.88671,39.35061],[-76.88575,39.35263],[-76.88409,39.35217],[-76.88227,39.35019],[-76.88015,39.34975],[-76.87993,39.3567],[-76.87456,39.35584],[-76.87338,39.35715],[-76.8807,39.36047],[-76.88167,39.36294],[-76.87795,39.36418],[-76.87941,39.3661],[-76.88172,39.36438],[-76.88502,39.36516],[-76.88681,39.36968],[-76.88895,39.37057],[-76.89099,39.37673],[-76.88988,39.3773],[-76.89043,39.37915],[-76.88866,39.38045],[-76.88992,39.38061],[-76.89116,39.37986],[-76.89147,39.38126],[-76.89127,39.38233],[-76.88835,39.38413],[-76.88579,39.38351],[-76.88599,39.38445],[-76.88512,39.38518],[-76.88344,39.38549],[-76.88446,39.38619],[-76.88471,39.38841],[-76.88203,39.38761],[-76.8805,39.3883],[-76.87922,39.38788],[-76.87855,39.38906],[-76.87972,39.38987],[-76.87866,39.3905],[-76.87486,39.38861],[-76.87336,39.38878],[-76.87447,39.38883],[-76.87762,39.39095],[-76.87745,39.39255],[-76.87952,39.39173],[-76.88005,39.39505],[-76.88552,39.39762],[-76.87935,39.40233],[-76.87893,39.4039],[-76.88443,39.4046],[-76.88443,39.4075],[-76.88253,39.4088],[-76.88143,39.4174],[-76.87863,39.4185],[-76.87593,39.4176],[-76.87453,39.4191],[-76.87533,39.4205],[-76.87953,39.4202],[-76.88649,39.42175],[-76.88709,39.42475],[-76.88627,39.42592],[-76.88857,39.42551],[-76.8898,39.42652],[-76.88922,39.42796],[-76.89068,39.42865],[-76.88939,39.43018],[-76.89315,39.42904],[-76.89366,39.42976],[-76.89477,39.42835],[-76.8956,39.42928],[-76.89517,39.43063],[-76.89312,39.43119],[-76.89482,39.43195],[-76.89421,39.43293],[-76.89513,39.43312],[-76.89505,39.43414],[-76.89426,39.43453],[-76.89114,39.43318],[-76.89064,39.4354],[-76.8943,39.4398],[-76.891,39.4393],[-76.8873,39.4405],[-76.8885,39.443],[-76.8918,39.4444],[-76.8918,39.4454],[-76.8885,39.4461],[-76.8871,39.4452],[-76.8823,39.4442],[-76.8818,39.4459],[-76.8764,39.4508],[-76.8771,39.4528],[-76.8794,39.4529],[-76.8839,39.4506],[-76.8865,39.4514],[-76.893,39.4553],[-76.8931,39.4574],[-76.8857,39.4564],[-76.8879,39.459],[-76.892,39.4618],[-76.88691,39.46324],[-76.8845,39.4669],[-76.8878,39.46707],[-76.88857,39.46852],[-76.88403,39.47003],[-76.883,39.4721],[-76.88329,39.47475],[-76.88176,39.47723],[-76.88074,39.47652],[-76.8769,39.47667],[-76.87544,39.47895],[-76.87734,39.48086],[-76.87646,39.48136],[-76.87661,39.48298],[-76.8748,39.48199],[-76.86931,39.48246],[-76.86697,39.48491],[-76.86653,39.48762],[-76.8687,39.4891],[-76.8686,39.4938],[-76.8567,39.5316],[-76.83666,39.58745],[-76.8343,39.5929],[-76.83282,39.59375],[-76.83365,39.59504],[-76.814,39.65051],[-76.7871,39.7208],[-76.93641,39.72071],[-76.9909,39.7198],[-77.21702,39.71986],[-77.21537,39.71889],[-77.21461,39.71722],[-77.2156,39.71271],[-77.2184,39.71142],[-77.22497,39.71036],[-77.22677,39.70731],[-77.22432,39.70453],[-77.21884,39.70306],[-77.21616,39.70135],[-77.21517,39.69936],[-77.21626,39.69741],[-77.2177,39.69637],[-77.22597,39.69384],[-77.23702,39.69472],[-77.24003,39.6957],[-77.24327,39.69473],[-77.24434,39.69137],[-77.23615,39.68565],[-77.23635,39.6809],[-77.23447,39.67923],[-77.23454,39.67743],[-77.23684,39.67451],[-77.24306,39.66998],[-77.24928,39.66748],[-77.25319,39.668],[-77.25461,39.6676],[-77.25584,39.66321],[-77.26201,39.66519],[-77.26624,39.66227],[-77.26658,39.66123],[-77.26514,39.65773],[-77.26547,39.65592],[-77.26677,39.6546],[-77.26981,39.65359],[-77.27241,39.6516],[-77.27561,39.6472],[-77.27138,39.64166],[-77.27673,39.63929],[-77.27917,39.63642],[-77.27587,39.63269],[-77.27597,39.63193],[-77.27997,39.63078],[-77.2915,39.63058],[-77.29465,39.63188],[-77.29548,39.6336],[-77.29808,39.63565],[-77.29843,39.63814],[-77.30006,39.63933],[-77.30708,39.64112],[-77.30972,39.64052],[-77.31154,39.639],[-77.31156,39.63875]]]},"properties":{"areaId":"county-24013","areaName":"Carroll County","detailName":"Carroll County","areaType":"county","countyFips":"24013"}},{"type":"Feature","geometry":{"type":"Polygon","coordinates":[[[-76.69766,39.72109],[-76.7871,39.7208],[-76.814,39.65051],[-76.83365,39.59504],[-76.83282,39.59375],[-76.8343,39.5929],[-76.83666,39.58745],[-76.8567,39.5316],[-76.8686,39.4938],[-76.8687,39.4891],[-76.86653,39.48762],[-76.86697,39.48491],[-76.86931,39.48246],[-76.8748,39.48199],[-76.87661,39.48298],[-76.87646,39.48136],[-76.87734,39.48086],[-76.87544,39.47895],[-76.8769,39.47667],[-76.88074,39.47652],[-76.88176,39.47723],[-76.88329,39.47475],[-76.883,39.4721],[-76.88403,39.47003],[-76.88857,39.46852],[-76.8878,39.46707],[-76.8845,39.4669],[-76.88691,39.46324],[-76.892,39.4618],[-76.8879,39.459],[-76.8857,39.4564],[-76.8931,39.4574],[-76.893,39.4553],[-76.8865,39.4514],[-76.8839,39.4506],[-76.8794,39.4529],[-76.8771,39.4528],[-76.8764,39.4508],[-76.8818,39.4459],[-76.8823,39.4442],[-76.8871,39.4452],[-76.8885,39.4461],[-76.8918,39.4454],[-76.8918,39.4444],[-76.8885,39.443],[-76.8873,39.4405],[-76.891,39.4393],[-76.8943,39.4398],[-76.89064,39.4354],[-76.89114,39.43318],[-76.89426,39.43453],[-76.89505,39.43414],[-76.89513,39.43312],[-76.89421,39.43293],[-76.89482,39.43195],[-76.89312,39.43119],[-76.89517,39.43063],[-76.8956,39.42928],[-76.89477,39.42835],[-76.89366,39.42976],[-76.89315,39.42904],[-76.88939,39.43018],[-76.89068,39.42865],[-76.88922,39.42796],[-76.8898,39.42652],[-76.88857,39.42551],[-76.88627,39.42592],[-76.88709,39.42475],[-76.88649,39.42175],[-76.87953,39.4202],[-76.87533,39.4205],[-76.87453,39.4191],[-76.87593,39.4176],[-76.87863,39.4185],[-76.88143,39.4174],[-76.88253,39.4088],[-76.88443,39.4075],[-76.88443,39.4046],[-76.87893,39.4039],[-76.87935,39.40233],[-76.88552,39.39762],[-76.88005,39.39505],[-76.87952,39.39173],[-76.87745,39.39255],[-76.87762,39.39095],[-76.87447,39.38883],[-76.87336,39.38878],[-76.87486,39.38861],[-76.87866,39.3905],[-76.87972,39.38987],[-76.87855,39.38906],[-76.87922,39.38788],[-76.8805,39.3883],[-76.88203,39.38761],[-76.88471,39.38841],[-76.88446,39.38619],[-76.88344,39.38549],[-76.88512,39.38518],[-76.88599,39.38445],[-76.88579,39.38351],[-76.88835,39.38413],[-76.89127,39.38233],[-76.89147,39.38126],[-76.89116,39.37986],[-76.88992,39.38061],[-76.88866,39.38045],[-76.89043,39.37915],[-76.88988,39.3773],[-76.89099,39.37673],[-76.88895,39.37057],[-76.88681,39.36968],[-76.88502,39.36516],[-76.88172,39.36438],[-76.87941,39.3661],[-76.87795,39.36418],[-76.88167,39.36294],[-76.8807,39.36047],[-76.87338,39.35715],[-76.87456,39.35584],[-76.8798,39.35681],[-76.8804,39.35583],[-76.87969,39.35336],[-76.88008,39.34983],[-76.88227,39.35019],[-76.87825,39.34242],[-76.87513,39.33975],[-76.8752,39.33765],[-76.87836,39.33629],[-76.87429,39.33169],[-76.86661,39.33171],[-76.8628,39.33008],[-76.85544,39.32322],[-76.85408,39.31785],[-76.85092,39.31586],[-76.84849,39.31618],[-76.84692,39.31811],[-76.84428,39.31833],[-76.84046,39.31548],[-76.83534,39.31572],[-76.83558,39.31208],[-76.83357,39.31151],[-76.83142,39.3132],[-76.82933,39.3172],[-76.82487,39.31935],[-76.82294,39.31883],[-76.81985,39.31436],[-76.81784,39.3132],[-76.816,39.31348],[-76.81622,39.31536],[-76.81405,39.31801],[-76.81227,39.31786],[-76.81176,39.31619],[-76.81013,39.31524],[-76.80868,39.3152],[-76.80452,39.31673],[-76.79911,39.31501],[-76.79562,39.31473],[-76.79347,39.31359],[-76.7925,39.31101],[-76.79395,39.30683],[-76.79554,39.30662],[-76.7966,39.30566],[-76.7958,39.30373],[-76.79032,39.30344],[-76.78703,39.29992],[-76.7847,39.29955],[-76.7816,39.29769],[-76.77892,39.29705],[-76.77845,39.2953],[-76.7822,39.29409],[-76.78518,39.29185],[-76.78517,39.28286],[-76.78872,39.27758],[-76.78979,39.27318],[-76.79453,39.27013],[-76.79439,39.2664],[-76.78846,39.26356],[-76.78014,39.25716],[-76.77354,39.2562],[-76.76893,39.25265],[-76.76402,39.25148],[-76.76373,39.25038],[-76.76495,39.24852],[-76.7636,39.24637],[-76.75718,39.2475],[-76.75428,39.24626],[-76.75181,39.24448],[-76.74959,39.2412],[-76.7432,39.23639],[-76.74175,39.23374],[-76.74007,39.2324],[-76.73312,39.2308],[-76.7299,39.22899],[-76.72818,39.22939],[-76.72457,39.22861],[-76.72197,39.22626],[-76.71682,39.22534],[-76.7131,39.22172],[-76.70645,39.22117],[-76.70518,39.21555],[-76.70087,39.21315],[-76.69913,39.21299],[-76.6963,39.21435],[-76.69675,39.2174],[-76.69283,39.21977],[-76.68839,39.2213],[-76.68425,39.22004],[-76.68018,39.22016],[-76.66992,39.22843],[-76.66364,39.23084],[-76.65866,39.23101],[-76.64722,39.22904],[-76.64368,39.22771],[-76.6394,39.22403],[-76.63538,39.2234],[-76.63153,39.22386],[-76.63012,39.22459],[-76.62853,39.22713],[-76.61861,39.2374],[-76.71105,39.27789],[-76.71131,39.37193],[-76.52979,39.37206],[-76.52949,39.21841],[-76.51448,39.20241],[-76.37468,39.15979],[-76.34948,39.15662],[-76.34584,39.17054],[-76.33985,39.1881],[-76.33236,39.20436],[-76.32111,39.21984],[-76.30424,39.23841],[-76.28769,39.2541],[-76.34428,39.28251],[-76.34378,39.28451],[-76.33808,39.29281],[-76.33188,39.29861],[-76.32338,39.30281],[-76.31428,39.30401],[-76.30818,39.30741],[-76.30658,39.31011],[-76.31628,39.32991],[-76.31558,39.33761],[-76.33008,39.35621],[-76.32858,39.36011],[-76.32118,39.36631],[-76.32058,39.36881],[-76.32368,39.37441],[-76.35878,39.3903],[-76.36105,39.40025],[-76.36522,39.40181],[-76.36633,39.40421],[-76.37194,39.4051],[-76.37107,39.41046],[-76.37165,39.41173],[-76.37024,39.41327],[-76.37021,39.41523],[-76.37401,39.42231],[-76.37593,39.42377],[-76.38038,39.42494],[-76.38002,39.42735],[-76.38098,39.4295],[-76.37841,39.43243],[-76.37715,39.43522],[-76.37958,39.43823],[-76.37995,39.44327],[-76.37891,39.44537],[-76.38048,39.44652],[-76.38307,39.45038],[-76.38688,39.45178],[-76.38858,39.45321],[-76.3883,39.45444],[-76.38629,39.45599],[-76.38659,39.45964],[-76.39043,39.45982],[-76.39275,39.46598],[-76.39554,39.4683],[-76.39996,39.46879],[-76.40164,39.47258],[-76.40269,39.47328],[-76.40501,39.47403],[-76.40641,39.472],[-76.40791,39.47213],[-76.40806,39.47606],[-76.40986,39.4768],[-76.4106,39.47835],[-76.41628,39.47818],[-76.41766,39.47893],[-76.41885,39.47795],[-76.42064,39.47813],[-76.42288,39.48089],[-76.42557,39.48164],[-76.42561,39.48317],[-76.42891,39.48821],[-76.43307,39.48805],[-76.4337,39.4922],[-76.432,39.49224],[-76.43214,39.49413],[-76.43075,39.49521],[-76.43008,39.49698],[-76.42864,39.49764],[-76.42996,39.49918],[-76.42788,39.50189],[-76.42941,39.5028],[-76.42934,39.5043],[-76.43221,39.50662],[-76.4355,39.5044],[-76.43595,39.50254],[-76.43698,39.50196],[-76.44062,39.50319],[-76.44797,39.50846],[-76.4508,39.50782],[-76.45241,39.50669],[-76.45643,39.50816],[-76.4596,39.5072],[-76.46024,39.50778],[-76.46009,39.5105],[-76.46274,39.51249],[-76.46449,39.51236],[-76.46906,39.51369],[-76.47041,39.51568],[-76.47411,39.51756],[-76.47588,39.51525],[-76.47742,39.51447],[-76.47822,39.51533],[-76.47741,39.51712],[-76.47873,39.51861],[-76.48158,39.5196],[-76.48373,39.51954],[-76.48562,39.52197],[-76.48919,39.52401],[-76.493,39.52463],[-76.49463,39.52658],[-76.49667,39.52595],[-76.49889,39.52351],[-76.50087,39.52445],[-76.50498,39.52506],[-76.50786,39.52358],[-76.51039,39.52439],[-76.51256,39.52905],[-76.51649,39.52908],[-76.51593,39.53187],[-76.51817,39.53289],[-76.51848,39.53637],[-76.52253,39.53672],[-76.52205,39.53888],[-76.52582,39.53987],[-76.5278,39.54352],[-76.53217,39.54398],[-76.53183,39.5511],[-76.53424,39.55142],[-76.53483,39.55325],[-76.53401,39.55471],[-76.53106,39.5554],[-76.53207,39.55685],[-76.53201,39.56147],[-76.53449,39.56086],[-76.53596,39.56165],[-76.53688,39.56558],[-76.53983,39.56775],[-76.54071,39.5723],[-76.54012,39.57375],[-76.5413,39.57504],[-76.54403,39.57526],[-76.54351,39.57863],[-76.54496,39.58031],[-76.54473,39.58164],[-76.54592,39.58318],[-76.54705,39.58768],[-76.54985,39.58901],[-76.55325,39.58943],[-76.55662,39.59454],[-76.56007,39.59606],[-76.55946,39.59766],[-76.56086,39.59964],[-76.5629,39.60624],[-76.56199,39.60796],[-76.56414,39.61041],[-76.56519,39.6145],[-76.56739,39.6843],[-76.56943,39.72117],[-76.58388,39.7213],[-76.59546,39.72045],[-76.60143,39.7213],[-76.6975,39.72109],[-76.69766,39.72109]]]},"properties":{"areaId":"county-24005","areaName":"Baltimore County","detailName":"Baltimore County","areaType":"county","countyFips":"24005"}},{"type":"Feature","geometry":{"type":"Polygon","coordinates":[[[-76.35647,39.03453],[-76.35329,39.04569],[-76.35173,39.05623],[-76.35484,39.12511],[-76.35302,39.14047],[-76.34948,39.15662],[-76.37468,39.15979],[-76.51448,39.20241],[-76.52949,39.21841],[-76.52978,39.20991],[-76.55009,39.19721],[-76.5674,39.20212],[-76.58408,39.20792],[-76.61165,39.23436],[-76.61861,39.2374],[-76.62853,39.22713],[-76.63012,39.22459],[-76.63252,39.2236],[-76.6394,39.22403],[-76.64368,39.22771],[-76.64722,39.22904],[-76.66173,39.23113],[-76.6648,39.23057],[-76.66992,39.22843],[-76.68018,39.22016],[-76.68425,39.22004],[-76.68839,39.2213],[-76.69283,39.21977],[-76.69693,39.21718],[-76.69623,39.21479],[-76.69721,39.21386],[-76.69644,39.21359],[-76.69697,39.21232],[-76.7011,39.2123],[-76.70473,39.20937],[-76.70505,39.20692],[-76.70748,39.20601],[-76.70791,39.20349],[-76.71245,39.20183],[-76.71194,39.19773],[-76.71391,39.19437],[-76.71333,39.19344],[-76.71608,39.19184],[-76.71931,39.19137],[-76.71963,39.19023],[-76.7211,39.18916],[-76.72011,39.1871],[-76.72128,39.18609],[-76.7221,39.18291],[-76.7276,39.18348],[-76.72796,39.18408],[-76.73002,39.1837],[-76.73431,39.18041],[-76.7382,39.17909],[-76.74654,39.17959],[-76.75145,39.17386],[-76.76042,39.16891],[-76.76374,39.16623],[-76.78217,39.14455],[-76.78398,39.14055],[-76.78538,39.13159],[-76.78697,39.12878],[-76.79005,39.12581],[-76.79447,39.12343],[-76.79886,39.12233],[-76.80833,39.12302],[-76.81289,39.12257],[-76.82392,39.11785],[-76.82572,39.11555],[-76.82624,39.11103],[-76.82818,39.10798],[-76.83047,39.10662],[-76.83678,39.10495],[-76.84036,39.10314],[-76.83765,39.10072],[-76.83769,39.09693],[-76.83421,39.09583],[-76.83265,39.09615],[-76.83219,39.0951],[-76.83098,39.09544],[-76.83025,39.09484],[-76.82933,39.09564],[-76.82784,39.09463],[-76.82739,39.09327],[-76.82725,39.08963],[-76.82986,39.08798],[-76.82998,39.08707],[-76.83178,39.08637],[-76.83491,39.08287],[-76.83234,39.0763],[-76.83654,39.07358],[-76.83729,39.0741],[-76.83808,39.07359],[-76.83646,39.06844],[-76.83459,39.06797],[-76.83342,39.06834],[-76.83362,39.06927],[-76.83155,39.06917],[-76.82918,39.06598],[-76.82918,39.06453],[-76.82666,39.0658],[-76.82262,39.06335],[-76.8212,39.06354],[-76.81787,39.06176],[-76.81599,39.06264],[-76.81539,39.06176],[-76.81353,39.06235],[-76.81005,39.06093],[-76.80423,39.06263],[-76.80228,39.06004],[-76.80139,39.05588],[-76.79571,39.05457],[-76.79451,39.05325],[-76.79235,39.046],[-76.78759,39.04463],[-76.78493,39.04497],[-76.78393,39.04625],[-76.77653,39.04531],[-76.77662,39.04454],[-76.77487,39.04487],[-76.77374,39.04382],[-76.77504,39.04234],[-76.77405,39.041],[-76.77029,39.04087],[-76.769,39.03895],[-76.76711,39.03907],[-76.76539,39.04043],[-76.76404,39.03878],[-76.76445,39.03762],[-76.76222,39.03517],[-76.75783,39.03757],[-76.75583,39.03772],[-76.75253,39.03614],[-76.75188,39.03492],[-76.74773,39.03365],[-76.75026,39.0308],[-76.74969,39.02978],[-76.7463,39.02858],[-76.74375,39.02514],[-76.74278,39.02047],[-76.74463,39.01739],[-76.74085,39.0146],[-76.74038,39.01287],[-76.73753,39.01229],[-76.73328,39.00682],[-76.7304,39.00647],[-76.7283,39.00736],[-76.72546,39.00592],[-76.724,39.00417],[-76.72596,39.00011],[-76.72561,38.99895],[-76.72103,38.99966],[-76.71607,38.9973],[-76.71313,38.99484],[-76.7116,38.99543],[-76.7089,38.99341],[-76.70839,38.99146],[-76.70612,38.99039],[-76.70573,38.98892],[-76.69817,38.98349],[-76.69887,38.98121],[-76.70246,38.97947],[-76.70245,38.97696],[-76.70103,38.97572],[-76.70176,38.97368],[-76.70396,38.97298],[-76.70374,38.97152],[-76.70229,38.97013],[-76.69926,38.96891],[-76.69898,38.96268],[-76.69518,38.95945],[-76.69528,38.95804],[-76.69398,38.95637],[-76.69333,38.95193],[-76.69543,38.94822],[-76.69348,38.94422],[-76.69117,38.94158],[-76.69216,38.93628],[-76.68994,38.93395],[-76.68369,38.93196],[-76.6818,38.93192],[-76.68142,38.93127],[-76.68138,38.92935],[-76.68283,38.92652],[-76.69033,38.92488],[-76.69059,38.92346],[-76.6862,38.91796],[-76.68535,38.91782],[-76.68438,38.91895],[-76.6832,38.91908],[-76.68059,38.91669],[-76.6792,38.91635],[-76.67794,38.91371],[-76.67852,38.91054],[-76.67682,38.90931],[-76.67472,38.90895],[-76.67258,38.90712],[-76.67061,38.90738],[-76.66997,38.90652],[-76.66957,38.90368],[-76.67137,38.90153],[-76.67151,38.89942],[-76.67626,38.89595],[-76.6763,38.89191],[-76.67179,38.88757],[-76.67257,38.88632],[-76.6755,38.88543],[-76.67541,38.88173],[-76.67678,38.87549],[-76.67826,38.87351],[-76.68066,38.87228],[-76.68065,38.87057],[-76.68252,38.86734],[-76.68841,38.86435],[-76.69153,38.8598],[-76.69221,38.85764],[-76.69117,38.8544],[-76.69365,38.84972],[-76.69655,38.84716],[-76.69827,38.84303],[-76.69972,38.83678],[-76.69896,38.83456],[-76.69917,38.83171],[-76.69637,38.82272],[-76.69697,38.81878],[-76.70261,38.81532],[-76.70502,38.81523],[-76.70812,38.81642],[-76.70942,38.81626],[-76.71165,38.81478],[-76.71231,38.81292],[-76.71146,38.80902],[-76.70806,38.80487],[-76.71068,38.79843],[-76.71012,38.796],[-76.70659,38.79271],[-76.70254,38.7904],[-76.70202,38.78875],[-76.70309,38.7873],[-76.70614,38.78566],[-76.71225,38.78436],[-76.71439,38.78076],[-76.71402,38.7769],[-76.71255,38.77491],[-76.70819,38.77316],[-76.70095,38.76875],[-76.70008,38.76619],[-76.6995,38.75412],[-76.69643,38.74947],[-76.68636,38.74848],[-76.68423,38.7513],[-76.68555,38.75304],[-76.68522,38.75609],[-76.68294,38.75572],[-76.68094,38.75763],[-76.67898,38.75551],[-76.67446,38.75613],[-76.67327,38.7554],[-76.67206,38.75572],[-76.67146,38.75674],[-76.6694,38.75685],[-76.66959,38.75875],[-76.6667,38.75991],[-76.6677,38.7611],[-76.66664,38.76205],[-76.66348,38.76183],[-76.65888,38.76476],[-76.65434,38.76452],[-76.65129,38.76738],[-76.64673,38.76895],[-76.64144,38.76919],[-76.63834,38.76774],[-76.63553,38.76776],[-76.63484,38.76668],[-76.63097,38.76724],[-76.62446,38.76651],[-76.62308,38.76728],[-76.62304,38.74909],[-76.62098,38.74629],[-76.62307,38.74393],[-76.62294,38.72659],[-76.61565,38.7207],[-76.53558,38.72148],[-76.52847,38.71274],[-76.46364,38.7111],[-76.45501,38.75012],[-76.43659,38.8074],[-76.43378,38.81402],[-76.42958,38.85492],[-76.41698,38.90881],[-76.40358,38.94521],[-76.38677,38.97363],[-76.37465,38.99155],[-76.36749,39.00011],[-76.36081,39.0182],[-76.35755,39.03148],[-76.35647,39.03453]]]},"properties":{"areaId":"county-24003","areaName":"Anne Arundel County","detailName":"Anne Arundel County","areaType":"county","countyFips":"24003"}},{"type":"Feature","geometry":{"type":"Polygon","coordinates":[[[-76.76458,39.24908],[-76.76373,39.25038],[-76.76402,39.25148],[-76.76893,39.25265],[-76.77354,39.2562],[-76.78014,39.25716],[-76.78846,39.26356],[-76.79449,39.26661],[-76.79453,39.27013],[-76.78979,39.27318],[-76.78872,39.27758],[-76.78517,39.28286],[-76.78518,39.29185],[-76.7822,39.29409],[-76.77845,39.2953],[-76.77892,39.29705],[-76.7816,39.29769],[-76.7847,39.29955],[-76.78703,39.29992],[-76.79032,39.30344],[-76.7958,39.30373],[-76.7966,39.30566],[-76.79554,39.30662],[-76.79395,39.30683],[-76.7925,39.31101],[-76.79347,39.31359],[-76.79562,39.31473],[-76.79911,39.31501],[-76.80452,39.31673],[-76.80868,39.3152],[-76.81013,39.31524],[-76.81176,39.31619],[-76.81227,39.31786],[-76.81405,39.31801],[-76.81622,39.31536],[-76.816,39.31348],[-76.81784,39.3132],[-76.81985,39.31436],[-76.82294,39.31883],[-76.82487,39.31935],[-76.82933,39.3172],[-76.83142,39.3132],[-76.83357,39.31151],[-76.83558,39.31208],[-76.83534,39.31572],[-76.84046,39.31548],[-76.84428,39.31833],[-76.84692,39.31811],[-76.84849,39.31618],[-76.85117,39.31594],[-76.85408,39.31785],[-76.85544,39.32322],[-76.8628,39.33008],[-76.86661,39.33171],[-76.86925,39.33135],[-76.87504,39.33215],[-76.87598,39.33417],[-76.87837,39.33645],[-76.8752,39.33765],[-76.8753,39.34011],[-76.87825,39.34242],[-76.87933,39.34548],[-76.88333,39.35149],[-76.8861,39.35255],[-76.88671,39.35061],[-76.88841,39.35174],[-76.88811,39.35315],[-76.88903,39.3538],[-76.8979,39.35163],[-76.89959,39.35233],[-76.90132,39.35418],[-76.90557,39.35422],[-76.90888,39.35265],[-76.90891,39.35062],[-76.908,39.34938],[-76.90958,39.34846],[-76.91291,39.35097],[-76.91829,39.35086],[-76.92328,39.35207],[-76.92572,39.35376],[-76.92772,39.35342],[-76.92925,39.35392],[-76.93312,39.3574],[-76.93741,39.35885],[-76.94137,39.35747],[-76.94444,39.35861],[-76.94643,39.36104],[-76.95073,39.35962],[-76.95118,39.35889],[-76.95048,39.35779],[-76.95714,39.35773],[-76.95996,39.35664],[-76.96283,39.35854],[-76.9645,39.36143],[-76.96982,39.36403],[-76.97325,39.36291],[-76.97489,39.36115],[-76.97667,39.3619],[-76.98161,39.36167],[-76.983,39.36286],[-76.98576,39.36132],[-76.9894,39.36134],[-76.99476,39.35828],[-76.99783,39.35568],[-76.99775,39.35486],[-77.00159,39.35434],[-77.00914,39.35483],[-77.01598,39.35254],[-77.01874,39.35252],[-77.0209,39.35353],[-77.02253,39.35079],[-77.02541,39.35059],[-77.02834,39.35244],[-77.03096,39.35133],[-77.03363,39.35361],[-77.03361,39.35534],[-77.0457,39.36003],[-77.04857,39.36215],[-77.04989,39.36216],[-77.05104,39.36117],[-77.05054,39.36],[-77.05118,39.35911],[-77.0599,39.3598],[-77.06128,39.35918],[-77.06577,39.36219],[-77.07064,39.36297],[-77.07441,39.36268],[-77.07767,39.36615],[-77.08045,39.36568],[-77.08601,39.36794],[-77.09228,39.36715],[-77.09339,39.36815],[-77.10136,39.36932],[-77.1076,39.36658],[-77.11171,39.36664],[-77.1133,39.36584],[-77.11632,39.3665],[-77.11791,39.36561],[-77.11968,39.36576],[-77.12642,39.36426],[-77.13591,39.36011],[-77.13592,39.35935],[-77.13829,39.35794],[-77.14511,39.3512],[-77.15177,39.34863],[-77.15604,39.34958],[-77.16247,39.35242],[-77.16617,39.35295],[-77.16755,39.35439],[-77.18022,39.34655],[-77.18381,39.34546],[-77.18711,39.3406],[-77.1868,39.3382],[-77.18459,39.33614],[-77.18149,39.32929],[-77.17328,39.32048],[-77.17192,39.31528],[-77.17035,39.31311],[-77.16636,39.31176],[-77.16459,39.30744],[-77.16233,39.30792],[-77.15977,39.3049],[-77.15341,39.30203],[-77.1499,39.299],[-77.14912,39.29929],[-77.14543,39.29596],[-77.14359,39.29303],[-77.14006,39.2921],[-77.1402,39.28928],[-77.13788,39.28809],[-77.13976,39.28562],[-77.13997,39.2831],[-77.1365,39.27929],[-77.13641,39.2782],[-77.13406,39.27657],[-77.13463,39.2723],[-77.13365,39.27054],[-77.13152,39.27013],[-77.13027,39.26828],[-77.12618,39.26863],[-77.12061,39.26703],[-77.1167,39.26746],[-77.11379,39.26454],[-77.10575,39.26431],[-77.10384,39.266],[-77.09726,39.26476],[-77.09596,39.2635],[-77.0932,39.26247],[-77.08908,39.26228],[-77.08592,39.26049],[-77.08166,39.25987],[-77.07881,39.2583],[-77.07741,39.25627],[-77.07146,39.25501],[-77.0699,39.25401],[-77.06969,39.25262],[-77.06867,39.25293],[-77.0673,39.25157],[-77.06642,39.25158],[-77.06438,39.24881],[-77.06219,39.24733],[-77.0607,39.24297],[-77.06153,39.24127],[-77.05994,39.24016],[-77.05896,39.24067],[-77.05759,39.24016],[-77.05591,39.23833],[-77.05353,39.23882],[-77.05025,39.23758],[-77.04481,39.23767],[-77.0432,39.23557],[-77.03588,39.22967],[-77.03452,39.22614],[-77.03207,39.22441],[-77.03232,39.22032],[-77.02229,39.21399],[-77.01929,39.21292],[-77.01757,39.20975],[-77.00942,39.20673],[-77.01217,39.19518],[-77.00497,39.19332],[-77.00402,39.19111],[-77.00578,39.18648],[-77.00759,39.18486],[-77.00842,39.18157],[-77.00491,39.17922],[-76.99991,39.17863],[-76.99886,39.17773],[-77.00262,39.17617],[-77.00536,39.17629],[-77.00461,39.17452],[-77.003,39.17418],[-76.99874,39.17513],[-76.99753,39.17447],[-77.00153,39.17038],[-76.99717,39.1664],[-76.99427,39.16682],[-76.98754,39.16638],[-76.97862,39.16365],[-76.97798,39.16291],[-76.97557,39.1632],[-76.97334,39.16207],[-76.97392,39.15856],[-76.97674,39.15402],[-76.9767,39.15199],[-76.97543,39.14958],[-76.96884,39.14854],[-76.96505,39.1486],[-76.96407,39.14819],[-76.96297,39.14584],[-76.95914,39.14513],[-76.95554,39.14487],[-76.95169,39.14621],[-76.95001,39.14436],[-76.95015,39.14351],[-76.95288,39.14276],[-76.95243,39.14043],[-76.95307,39.13897],[-76.95547,39.13809],[-76.95807,39.13545],[-76.95852,39.13402],[-76.94858,39.1296],[-76.94675,39.12941],[-76.94369,39.13211],[-76.93828,39.13278],[-76.93342,39.1366],[-76.92821,39.13825],[-76.92644,39.13531],[-76.91847,39.13172],[-76.91545,39.1268],[-76.91145,39.12669],[-76.90673,39.1254],[-76.89872,39.1265],[-76.89366,39.12838],[-76.88914,39.13115],[-76.88566,39.13129],[-76.88432,39.12688],[-76.8798,39.12281],[-76.87522,39.11669],[-76.87267,39.1145],[-76.8708,39.11405],[-76.87011,39.11271],[-76.86288,39.11033],[-76.85655,39.11073],[-76.85106,39.10892],[-76.84908,39.1091],[-76.84159,39.10586],[-76.84036,39.10314],[-76.83678,39.10495],[-76.83047,39.10662],[-76.82818,39.10798],[-76.82639,39.11056],[-76.82557,39.11586],[-76.82195,39.11905],[-76.81164,39.1228],[-76.80789,39.123],[-76.80199,39.1222],[-76.7974,39.12258],[-76.79005,39.12581],[-76.78697,39.12878],[-76.78538,39.13159],[-76.78398,39.14055],[-76.78217,39.14455],[-76.76331,39.16664],[-76.76042,39.16891],[-76.75145,39.17386],[-76.74654,39.17959],[-76.7382,39.17909],[-76.73431,39.18041],[-76.73002,39.1837],[-76.72796,39.18408],[-76.7276,39.18348],[-76.7221,39.18291],[-76.72128,39.18609],[-76.72011,39.1871],[-76.7211,39.18916],[-76.71963,39.19023],[-76.71931,39.19137],[-76.71608,39.19184],[-76.71333,39.19344],[-76.71391,39.19437],[-76.71194,39.19773],[-76.71245,39.20183],[-76.70791,39.20349],[-76.70748,39.20601],[-76.70505,39.20692],[-76.70473,39.20937],[-76.7011,39.2123],[-76.69781,39.21198],[-76.69674,39.2126],[-76.69644,39.21359],[-76.69717,39.21355],[-76.69708,39.21409],[-76.70024,39.21298],[-76.70504,39.2154],[-76.70645,39.22117],[-76.7131,39.22172],[-76.71682,39.22534],[-76.72197,39.22626],[-76.72457,39.22861],[-76.72818,39.22939],[-76.7299,39.22899],[-76.73312,39.2308],[-76.74007,39.2324],[-76.74175,39.23374],[-76.7432,39.23639],[-76.74959,39.2412],[-76.75181,39.24448],[-76.75428,39.24626],[-76.75718,39.2475],[-76.7635,39.24635],[-76.76466,39.24744],[-76.7648,39.24884],[-76.76458,39.24908]]]},"properties":{"areaId":"county-24027","areaName":"Howard County","detailName":"Howard County","areaType":"county","countyFips":"24027"}}]}